[{"OBJECT_NAME":"FLOCK 4BE-3","OBJECT_ID":"2024-149CX","EPOCH":"2026-03-09T15:57:02.546784","MEAN_MOTION":15.38204451,"ECCENTRICITY":0.00032608,"INCLINATION":97.3738,"RA_OF_ASC_NODE":151.8519,"ARG_OF_PERICENTER":277.479,"MEAN_ANOMALY":82.6085,"EPHEMERIS_TYPE":0,"CLASSIFICATION_TYPE":"U","NORAD_CAT_ID":60561,"ELEMENT_SET_NO":999,"REV_AT_EPOCH":8702,"BSTAR":0.00050446891,"MEAN_MOTION_DOT":0.00018927,"MEAN_MOTION_DDOT":0},{"OBJECT_NAME":"STARLINK-32955","OBJECT_ID":"2025-039P","EPOCH":"2026-03-09T22:00:01.999584","MEAN_MOTION":15.35643396,"ECCENTRICITY":0.00092359,"INCLINATION":43.0013,"RA_OF_ASC_NODE":10.1549,"ARG_OF_PERICENTER":201.6454,"MEAN_ANOMALY":283.0913,"EPHEMERIS_TYPE":0,"CLASSIFICATION_TYPE":"U","NORAD_CAT_ID":63117,"ELEMENT_SET_NO":999,"REV_AT_EPOCH":575,"BSTAR":0.0033239594,"MEAN_MOTION_DOT":0.00119453,"MEAN_MOTION_DDOT":0}]
